[{"OBJECT_NAME":"STARLINK-35817","OBJECT_ID":"2025-254K","EPOCH":"2026-03-09T17:59:35.507328","MEAN_MOTION":15.30200243,"ECCENTRICITY":9.873e-5,"INCLINATION":53.1569,"RA_OF_ASC_NODE":232.2608,"ARG_OF_PERICENTER":91.844,"MEAN_ANOMALY":268.2674,"EPHEMERIS_TYPE":0,"CLASSIFICATION_TYPE":"U","NORAD_CAT_ID":66357,"ELEMENT_SET_NO":999,"REV_AT_EPOCH":1898,"BSTAR":0.00080782961,"MEAN_MOTION_DOT":0.00023643,"MEAN_MOTION_DDOT":0},{"OBJECT_NAME":"TRANSPORTER-1 OBJECT L","OBJECT_ID":"2021-006L","EPOCH":"2026-03-09T22:38:42.795168","MEAN_MOTION":15.33192932,"ECCENTRICITY":0.00114726,"INCLINATION":97.2368,"RA_OF_ASC_NODE":117.6447,"ARG_OF_PERICENTER":180.5165,"MEAN_ANOMALY":179.6068,"EPHEMERIS_TYPE":0,"CLASSIFICATION_TYPE":"U","NORAD_CAT_ID":47423,"ELEMENT_SET_NO":999,"REV_AT_EPOCH":28445,"BSTAR":0.00025636794,"MEAN_MOTION_DOT":8.162e-5,"MEAN_MOTION_DDOT":0}]
